{
  "links" : {
    "next" : "https://api.nasa.gov/neo/rest/v1/feed?start_date=2007-05-23&end_date=2007-05-23&detailed=true&api_key=t0TVs3DtDT2H8Oy2Zy8m2eVrNsAVKAexjcZXUckd",
    "prev" : "https://api.nasa.gov/neo/rest/v1/feed?start_date=2007-05-21&end_date=2007-05-21&detailed=true&api_key=t0TVs3DtDT2H8Oy2Zy8m2eVrNsAVKAexjcZXUckd",
    "self" : "https://api.nasa.gov/neo/rest/v1/feed?start_date=2007-05-22&end_date=2007-05-22&detailed=true&api_key=t0TVs3DtDT2H8Oy2Zy8m2eVrNsAVKAexjcZXUckd"
  },
  "element_count" : 5,
  "near_earth_objects" : {
    "2007-05-22" : [ {
      "links" : {
        "self" : "https://api.nasa.gov/neo/rest/v1/neo/3673167?api_key=t0TVs3DtDT2H8Oy2Zy8m2eVrNsAVKAexjcZXUckd"
      },
      "neo_reference_id" : "3673167",
      "name" : "(2014 KA91)",
      "nasa_jpl_url" : "http://ssd.jpl.nasa.gov/sbdb.cgi?sstr=3673167",
      "absolute_magnitude_h" : 25.5,
      "estimated_diameter" : {
        "kilometers" : {
          "estimated_diameter_min" : 0.0211132445,
          "estimated_diameter_max" : 0.0472106499
        },
        "meters" : {
          "estimated_diameter_min" : 21.113244479,
          "estimated_diameter_max" : 47.2106498806
        },
        "miles" : {
          "estimated_diameter_min" : 0.0131191578,
          "estimated_diameter_max" : 0.0293353287
        },
        "feet" : {
          "estimated_diameter_min" : 69.2691770164,
          "estimated_diameter_max" : 154.8905885541
        }
      },
      "is_potentially_hazardous_asteroid" : false,
      "close_approach_data" : [ {
        "close_approach_date" : "2007-05-22",
        "epoch_date_close_approach" : 1179817200000,
        "relative_velocity" : {
          "kilometers_per_second" : "14.6976843873",
          "kilometers_per_hour" : "52911.6637941032",
          "miles_per_hour" : "32877.2502058415"
        },
        "miss_distance" : {
          "astronomical" : "0.2275802606",
          "lunar" : "88.5287246704",
          "kilometers" : "34045524",
          "miles" : "21154908"
        },
        "orbiting_body" : "Earth"
      } ],
      "orbital_data" : {
        "orbit_id" : "10",
        "orbit_determination_date" : "2017-04-06 08:40:13",
        "orbit_uncertainty" : "7",
        "minimum_orbit_intersection" : ".0199792",
        "jupiter_tisserand_invariant" : "5.071",
        "epoch_osculation" : "2458000.5",
        "eccentricity" : ".2779834513388536",
        "semi_major_axis" : "1.257133695688813",
        "inclination" : "9.226926450994135",
        "ascending_node_longitude" : "249.0385697048362",
        "orbital_period" : "514.8380392780659",
        "perihelion_distance" : ".9076713321668685",
        "perihelion_argument" : "67.59729437371954",
        "aphelion_distance" : "1.606596059210757",
        "perihelion_time" : "2457896.912779548721",
        "mean_anomaly" : "72.43326350700963",
        "mean_motion" : ".6992490308307672",
        "equinox" : "J2000"
      }
    }, {
      "links" : {
        "self" : "https://api.nasa.gov/neo/rest/v1/neo/3752455?api_key=t0TVs3DtDT2H8Oy2Zy8m2eVrNsAVKAexjcZXUckd"
      },
      "neo_reference_id" : "3752455",
      "name" : "(2016 HX3)",
      "nasa_jpl_url" : "http://ssd.jpl.nasa.gov/sbdb.cgi?sstr=3752455",
      "absolute_magnitude_h" : 21.2,
      "estimated_diameter" : {
        "kilometers" : {
          "estimated_diameter_min" : 0.1529519353,
          "estimated_diameter_max" : 0.3420109247
        },
        "meters" : {
          "estimated_diameter_min" : 152.9519353442,
          "estimated_diameter_max" : 342.0109247198
        },
        "miles" : {
          "estimated_diameter_min" : 0.095039897,
          "estimated_diameter_max" : 0.2125156703
        },
        "feet" : {
          "estimated_diameter_min" : 501.8108275547,
          "estimated_diameter_max" : 1122.0831222578
        }
      },
      "is_potentially_hazardous_asteroid" : false,
      "close_approach_data" : [ {
        "close_approach_date" : "2007-05-22",
        "epoch_date_close_approach" : 1179817200000,
        "relative_velocity" : {
          "kilometers_per_second" : "1.9801414653",
          "kilometers_per_hour" : "7128.5092750413",
          "miles_per_hour" : "4429.3784437055"
        },
        "miss_distance" : {
          "astronomical" : "0.3127496859",
          "lunar" : "121.6596298218",
          "kilometers" : "46786688",
          "miles" : "29071900"
        },
        "orbiting_body" : "Earth"
      } ],
      "orbital_data" : {
        "orbit_id" : "19",
        "orbit_determination_date" : "2017-04-06 08:26:20",
        "orbit_uncertainty" : "4",
        "minimum_orbit_intersection" : ".224921",
        "jupiter_tisserand_invariant" : "4.558",
        "epoch_osculation" : "2458000.5",
        "eccentricity" : ".1755056994598257",
        "semi_major_axis" : "1.481559134917922",
        "inclination" : "5.486227267482854",
        "ascending_node_longitude" : "168.5755274662697",
        "orbital_period" : "658.6836944800361",
        "perihelion_distance" : "1.221537062653058",
        "perihelion_argument" : "116.5382712094873",
        "aphelion_distance" : "1.741581207182786",
        "perihelion_time" : "2458258.804680228359",
        "mean_anomaly" : "218.8249782687957",
        "mean_motion" : ".5465445752140311",
        "equinox" : "J2000"
      }
    } ]
  }
}